{
    "links": {
        "self": "http://www.neowsapp.com/rest/v1/neo/3159888?api_key=iIulBulltgU6a56xZRHN4H3l9WmuAYTsLGpBGhQ2"
    },
    "id": "3159888",
    "neo_reference_id": "3159888",
    "name": "(2003 RE2)",
    "designation": "2003 RE2",
    "nasa_jpl_url": "http://ssd.jpl.nasa.gov/sbdb.cgi?sstr=3159888",
    "absolute_magnitude_h": 23.0,
    "estimated_diameter": {
        "kilometers": {
            "estimated_diameter_min": 0.0667659413,
            "estimated_diameter_max": 0.1492931834
        },
        "meters": {
            "estimated_diameter_min": 66.7659413495,
            "estimated_diameter_max": 149.2931834393
        },
        "miles": {
            "estimated_diameter_min": 0.0414864197,
            "estimated_diameter_max": 0.0927664547
        },
        "feet": {
            "estimated_diameter_min": 219.0483710172,
            "estimated_diameter_max": 489.807047955
        }
    },
    "is_potentially_hazardous_asteroid": false,
    "close_approach_data": [
        {
            "close_approach_date": "1999-07-20",
            "close_approach_date_full": "1999-Jul-20 09:14",
            "epoch_date_close_approach": 932462040000,
            "relative_velocity": {
                "kilometers_per_second": "10.726290627",
                "kilometers_per_hour": "38614.6462572781",
                "miles_per_hour": "23993.6395035848"
            },
            "miss_distance": {
                "astronomical": "0.0662174065",
                "lunar": "25.7585711285",
                "kilometers": "9905982.969324155",
                "miles": "6155292.392437139"
            },
            "orbiting_body": "Mars"
        },
        {
            "close_approach_date": "2003-08-23",
            "close_approach_date_full": "2003-Aug-23 09:13",
            "epoch_date_close_approach": 1061629980000,
            "relative_velocity": {
                "kilometers_per_second": "5.5202030647",
                "kilometers_per_hour": "19872.731033085",
                "miles_per_hour": "12348.14223553"
            },
            "miss_distance": {
                "astronomical": "0.1182624537",
                "lunar": "46.0040944893",
                "kilometers": "17691811.174493619",
                "miles": "10993181.7032211822"
            },
            "orbiting_body": "Earth"
        }
    ],
    "orbital_data": {
        "orbit_id": "17",
        "orbit_determination_date": "2017-04-06 09:13:53",
        "first_observation_date": "2003-09-03",
        "last_observation_date": "2003-10-19",
        "data_arc_in_days": 46,
        "observations_used": 49,
        "orbit_uncertainty": "6",
        "minimum_orbit_intersection": ".126145",
        "jupiter_tisserand_invariant": "3.266",
        "epoch_osculation": "2459000.5",
        "eccentricity": ".5403941151574846",
        "semi_major_axis": "2.467812238148125",
        "inclination": "2.493315284122177",
        "ascending_node_longitude": "299.214070464378",
        "orbital_period": "1416.010902804832",
        "perihelion_distance": "1.134221027339257",
        "perihelion_argument": "33.209669541812",
        "aphelion_distance": "3.801403448956993",
        "perihelion_time": "2458532.864719419621",
        "mean_anomaly": "118.8894101560034",
        "mean_motion": ".2542353305944979",
        "equinox": "J2000",
        "orbit_class": {
            "orbit_class_type": "AMO",
            "orbit_class_description": "Near-Earth asteroid orbits similar to that of 1221 Amor",
            "orbit_class_range": "1.017 AU < q (perihelion) < 1.3 AU"
        }
    },
    "is_sentry_object": false
}